DELTA 2 R/B(1)          
1 20453U 90008B   26038.24001821  .00085042  00000+0  11272-2 0  9991
2 20453  35.6060  14.0358 0095142 334.6671  24.9417 15.51758166921394
COSMOS 2058             
1 20465U 90010A   26038.52011902  .00005198  00000+0  30879-3 0  9998
2 20465  82.4637  77.1489 0012054  81.2516 279.0078 15.11043462937683
SL-14 R/B               
1 20466U 90010B   26038.20079316  .00000639  00000+0  74413-4 0  9995
2 20466  82.5030 296.0283 0020918  43.5743 316.7119 14.83542264923960
SL-14 R/B               
1 20511U 90018B   26038.66176949  .00000518  00000+0  62050-4 0  9994
2 20511  82.5182 251.1629 0016132 185.9228 174.1799 14.82113636918136
HST                     
1 20580U 90037B   26037.81329490  .00008603  00000+0  28897-3 0  9991
2 20580  28.4665 250.5538 0001882 124.2340 235.8434 15.28986369768581
SL-16 R/B               
1 20625U 90046B   26038.29971648  .00000137  00000+0  95213-4 0  9993
2 20625  71.0001   1.7349 0014621 341.8563  18.2035 14.15005591844099
COSMOS 2084             
1 20663U 90055A   26038.43488658  .00003455  00000+0  25211-3 0  9991
2 20663  62.7898  78.7513 0021878 183.7599 176.3341 15.05455558931762
SL-6 R/B(2)             
1 20666U 90055D   26038.31012140  .00003656  00000+0  28059-3 0  9996
2 20666  62.7851 357.1471 0020222 338.2962  21.7278 15.03433149933623
SL-8 R/B                
1 20775U 90078B   26038.66226950  .00020034  00000+0  59104-3 0  9990
2 20775  82.9021 278.2928 0367122 114.5970 249.3966 14.88072324804832
SL-8 R/B                
1 21088U 91006B   26038.55462391  .00000028  00000+0  12287-4 0  9992
2 21088  82.9430 192.4503 0023580 118.4715 311.9883 13.77491996759927
OKEAN-3                 
1 21397U 91039A   26038.35458580  .00004543  00000+0  32110-3 0  9996
2 21397  82.5182   6.2222 0016481  76.3261 283.9800 15.04563620860476
COSMOS 2151             
1 21422U 91042A   26038.59871592  .00002683  00000+0  21338-3 0  9990
2 21422  82.4964 112.7026 0013185 155.0802 205.1062 14.99988895858685
